{"type": "FeatureCollection", "features": [ {"type": "Feature", "properties": {"norad_id": 34303, "name": "COSMOS 2251 DEB", "group": "cosmos-2251-debris", "lat": -0.8087882844606912, "lon": -54.28194839902259, "alt_km": 709.0183513002439, "timestamp": "2025-12-03T06:58:43.635937+00:00", "meta": {"OBJECT_NAME": "COSMOS 2251 DEB", "OBJECT_ID": "1993-036MZ", "EPOCH": "2025-12-02T16:55:17.590080", "MEAN_MOTION": 14.54244819, "ECCENTRICITY": 0.0134911, "INCLINATION": 74.0049, "RA_OF_ASC_NODE": 307.0595, "ARG_OF_PERICENTER": 87.9957, "MEAN_ANOMALY": 87.6669, "EPHEMERIS_TYPE": 0, "CLASSIFICATION_TYPE": "U", "NORAD_CAT_ID": 34303, "ELEMENT_SET_NO": 999, "REV_AT_EPOCH": 87816, "BSTAR": 0.0014526, "MEAN_MOTION_DOT": 6.927e-05, "MEAN_MOTION_DDOT": 0}, "tle": {"line1": "1 34303U 93036MZ  25336.70506470  .00006927  00000+0  14526-2 0  9995", "line2": "2 34303  74.0049 307.0595 0134911  87.9957  87.6669 14.54244819878166"}}, "geometry": {"type": "Point", "coordinates": [-54.28194839902259, -0.8087882844606912]}}, {"type": "Feature", "properties": {"norad_id": 34304, "name": "COSMOS 2251 DEB", "group": "cosmos-2251-debris", "lat": -41.89815048538071, "lon": 125.11638425046289, "alt_km": 697.7395679163574, "timestamp": "2025-12-03T06:58:43.635946+00:00", "meta": {"OBJECT_NAME": "COSMOS 2251 DEB", "OBJECT_ID": "1993-036NA", "EPOCH": "2025-12-02T20:04:01.242336", "MEAN_MOTION": 14.37712693, "ECCENTRICITY": 0.0128831, "INCLINATION": 74.0119, "RA_OF_ASC_NODE": 140.8603, "ARG_OF_PERICENTER": 280.6768, "MEAN_ANOMALY": 202.2821, "EPHEMERIS_TYPE": 0, "CLASSIFICATION_TYPE": "U", "NORAD_CAT_ID": 34304, "ELEMENT_SET_NO": 999, "REV_AT_EPOCH": 87154, "BSTAR": 0.0017161, "MEAN_MOTION_DOT": 5.656e-05, "MEAN_MOTION_DDOT": 0}, "tle": {"line1": "1 34304U 93036NA  25336.83612549  .00005656  00000+0  17161-2 0  9991", "line2": "2 34304  74.0119 140.8603 0128831 280.6768 202.2821 14.37712693871545"}}, "geometry": {"type": "Point", "coordinates": [125.11638425046289, -41.89815048538071]}}, {"type": "Feature", "properties": {"norad_id": 34307, "name": "COSMOS 2251 DEB", "group": "cosmos-2251-debris", "lat": 61.25545026355625, "lon": 116.8617376287376, "alt_km": 845.5444916735878, "timestamp": "2025-12-03T06:58:43.635957+00:00", "meta": {"OBJECT_NAME": "COSMOS 2251 DEB", "OBJECT_ID": "1993-036ND", "EPOCH": "2025-12-02T02:23:23.743968", "MEAN_MOTION": 13.54298757, "ECCENTRICITY": 0.03924247, "INCLINATION": 74.0532, "RA_OF_ASC_NODE": 330.1897, "ARG_OF_PERICENTER": 163.4569, "MEAN_ANOMALY": 268.4475, "EPHEMERIS_TYPE": 0, "CLASSIFICATION_TYPE": "U", "NORAD_CAT_ID": 34307, "ELEMENT_SET_NO": 999, "REV_AT_EPOCH": 82718, "BSTAR": 0.00066384063, "MEAN_MOTION_DOT": 7.19e-06, "MEAN_MOTION_DDOT": 0}, "tle": {"line1": "1 34307U 93036ND  25336.09958037  .00000719  00000+0  66384-3 0  9994", "line2": "2 34307  74.0532 330.1897 0392424 163.4569 268.4475 13.54298757827182"}}, "geometry": {"type": "Point", "coordinates": [116.8617376287376, 61.25545026355625]}}, {"type": "Feature", "properties": {"norad_id": 34313, "name": "COSMOS 2251 DEB", "group": "cosmos-2251-debris", "lat": 68.6872461939475, "lon": 97.85231127584831, "alt_km": 501.679664806692, "timestamp": "2025-12-03T06:58:43.635967+00:00", "meta": {"OBJECT_NAME": "COSMOS 2251 DEB", "OBJECT_ID": "1993-036NK", "EPOCH": "2025-12-02T09:56:29.604192", "MEAN_MOTION": 15.1660743, "ECCENTRICITY": 0.00103144, "INCLINATION": 73.9721, "RA_OF_ASC_NODE": 327.1498, "ARG_OF_PERICENTER": 95.2372, "MEAN_ANOMALY": 265.0001, "EPHEMERIS_TYPE": 0, "CLASSIFICATION_TYPE": "U", "NORAD_CAT_ID": 34313, "ELEMENT_SET_NO": 999, "REV_AT_EPOCH": 88908, "BSTAR": 0.003969879, "MEAN_MOTION_DOT": 0.00078511, "MEAN_MOTION_DDOT": 0}, "tle": {"line1": "1 34313U 93036NK  25336.41423153  .00078511  00000+0  39699-2 0  9996", "line2": "2 34313  73.9721 327.1498 0010314  95.2372 265.0001 15.16607430889086"}}, "geometry": {"type": "Point", "coordinates": [97.85231127584831, 68.6872461939475]}}, {"type": "Feature", "properties": {"norad_id": 34314, "name": "COSMOS 2251 DEB", "group": "cosmos-2251-debris", "lat": -55.46220401341593, "lon": -59.38335417420969, "alt_km": 890.2221437748958, "timestamp": "2025-12-03T06:58:43.635977+00:00", "meta": {"OBJECT_NAME": "COSMOS 2251 DEB", "OBJECT_ID": "1993-036NL", "EPOCH": "2025-12-02T17:57:47.960928", "MEAN_MOTION": 14.17382333, "ECCENTRICITY": 0.0102524, "INCLINATION": 74.0053, "RA_OF_ASC_NODE": 326.2134, "ARG_OF_PERICENTER": 74.446, "MEAN_ANOMALY": 341.4198, "EPHEMERIS_TYPE": 0, "CLASSIFICATION_TYPE": "U", "NORAD_CAT_ID": 34314, "ELEMENT_SET_NO": 999, "REV_AT_EPOCH": 86516, "BSTAR": 0.00075364, "MEAN_MOTION_DOT": 1.582e-05, "MEAN_MOTION_DDOT": 0}, "tle": {"line1": "1 34314U 93036NL  25336.74847177  .00001582  00000+0  75364-3 0  9993", "line2": "2 34314  74.0053 326.2134 0102524  74.4460 341.4198 14.17382333865167"}}, "geometry": {"type": "Point", "coordinates": [-59.38335417420969, -55.46220401341593]}}, {"type": "Feature", "properties": {"norad_id": 34316, "name": "COSMOS 2251 DEB", "group": "cosmos-2251-debris", "lat": 45.66451060163309, "lon": 158.8106326296056, "alt_km": 585.5962316106315, "timestamp": "2025-12-03T06:58:43.635988+00:00", "meta": {"OBJECT_NAME": "COSMOS 2251 DEB", "OBJECT_ID": "1993-036NN", "EPOCH": "2025-12-02T11:04:14.633472", "MEAN_MOTION": 14.91333968, "ECCENTRICITY": 0.00078318, "INCLINATION": 74.0655, "RA_OF_ASC_NODE": 357.4723, "ARG_OF_PERICENTER": 87.8218, "MEAN_ANOMALY": 272.3861, "EPHEMERIS_TYPE": 0, "CLASSIFICATION_TYPE": "U", "NORAD_CAT_ID": 34316, "ELEMENT_SET_NO": 999, "REV_AT_EPOCH": 89056, "BSTAR": 0.0018346533, "MEAN_MOTION_DOT": 0.00018316, "MEAN_MOTION_DDOT": 0}, "tle": {"line1": "1 34316U 93036NN  25336.46128048  .00018316  00000+0  18347-2 0  9993", "line2": "2 34316  74.0655 357.4723 0007831  87.8218 272.3861 14.91333968890564"}}, "geometry": {"type": "Point", "coordinates": [158.8106326296056, 45.66451060163309]}}, {"type": "Feature", "properties": {"norad_id": 34317, "name": "COSMOS 2251 DEB", "group": "cosmos-2251-debris", "lat": -35.05718923154488, "lon": -117.01433989330057, "alt_km": 1270.3760887845747, "timestamp": "2025-12-03T06:58:43.635998+00:00", "meta": {"OBJECT_NAME": "COSMOS 2251 DEB", "OBJECT_ID": "1993-036NP", "EPOCH": "2025-12-02T14:39:01.920960", "MEAN_MOTION": 13.65108813, "ECCENTRICITY": 0.03362679, "INCLINATION": 73.925, "RA_OF_ASC_NODE": 52.4322, "ARG_OF_PERICENTER": 43.6766, "MEAN_ANOMALY": 70.3138, "EPHEMERIS_TYPE": 0, "CLASSIFICATION_TYPE": "U", "NORAD_CAT_ID": 34317, "ELEMENT_SET_NO": 999, "REV_AT_EPOCH": 83481, "BSTAR": 0.00048244094, "MEAN_MOTION_DOT": 5.54e-06, "MEAN_MOTION_DDOT": 0}, "tle": {"line1": "1 34317U 93036NP  25336.61043890  .00000554  00000+0  48244-3 0  9997", "line2": "2 34317  73.9250  52.4322 0336267  43.6766  70.3138 13.65108813834815"}}, "geometry": {"type": "Point", "coordinates": [-117.01433989330057, -35.05718923154488]}}, {"type": "Feature", "properties": {"norad_id": 34321, "name": "COSMOS 2251 DEB", "group": "cosmos-2251-debris", "lat": -67.53404871218122, "lon": 37.95104932581651, "alt_km": 725.4631628325651, "timestamp": "2025-12-03T06:58:43.636008+00:00", "meta": {"OBJECT_NAME": "COSMOS 2251 DEB", "OBJECT_ID": "1993-036NT", "EPOCH": "2025-12-02T19:58:32.630304", "MEAN_MOTION": 14.49987168, "ECCENTRICITY": 0.0015616, "INCLINATION": 74.0277, "RA_OF_ASC_NODE": 174.9743, "ARG_OF_PERICENTER": 305.0879, "MEAN_ANOMALY": 76.843, "EPHEMERIS_TYPE": 0, "CLASSIFICATION_TYPE": "U", "NORAD_CAT_ID": 34321, "ELEMENT_SET_NO": 999, "REV_AT_EPOCH": 88343, "BSTAR": 0.00068373, "MEAN_MOTION_DOT": 2.624e-05, "MEAN_MOTION_DDOT": 0}, "tle": {"line1": "1 34321U 93036NT  25336.83232211  .00002624  00000+0  68373-3 0  9998", "line2": "2 34321  74.0277 174.9743 0015616 305.0879  76.8430 14.49987168883439"}}, "geometry": {"type": "Point", "coordinates": [37.95104932581651, -67.53404871218122]}}, {"type": "Feature", "properties": {"norad_id": 34323, "name": "COSMOS 2251 DEB", "group": "cosmos-2251-debris", "lat": 10.899967979333177, "lon": -41.527994311499214, "alt_km": 609.2492782947766, "timestamp": "2025-12-03T06:58:43.636019+00:00", "meta": {"OBJECT_NAME": "COSMOS 2251 DEB", "OBJECT_ID": "1993-036NV", "EPOCH": "2025-12-02T20:58:30.379008", "MEAN_MOTION": 14.73873065, "ECCENTRICITY": 0.0061074, "INCLINATION": 73.9521, "RA_OF_ASC_NODE": 142.4665, "ARG_OF_PERICENTER": 188.6918, "MEAN_ANOMALY": 289.3533, "EPHEMERIS_TYPE": 0, "CLASSIFICATION_TYPE": "U", "NORAD_CAT_ID": 34323, "ELEMENT_SET_NO": 999, "REV_AT_EPOCH": 88294, "BSTAR": 0.0034889, "MEAN_MOTION_DOT": 0.00023608, "MEAN_MOTION_DDOT": 0}, "tle": {"line1": "1 34323U 93036NV  25336.87396272  .00023608  00000+0  34889-2 0  9991", "line2": "2 34323  73.9521 142.4665 0061074 188.6918 289.3533 14.73873065882949"}}, "geometry": {"type": "Point", "coordinates": [-41.527994311499214, 10.899967979333177]}}, {"type": "Feature", "properties": {"norad_id": 34325, "name": "COSMOS 2251 DEB", "group": "cosmos-2251-debris", "lat": -50.97920365094992, "lon": 50.37410707555894, "alt_km": 745.4959474467969, "timestamp": "2025-12-03T06:58:43.636030+00:00", "meta": {"OBJECT_NAME": "COSMOS 2251 DEB", "OBJECT_ID": "1993-036NX", "EPOCH": "2025-12-02T18:12:55.504800", "MEAN_MOTION": 14.04374276, "ECCENTRICITY": 0.0193305, "INCLINATION": 73.8715, "RA_OF_ASC_NODE": 210.3909, "ARG_OF_PERICENTER": 229.6862, "MEAN_ANOMALY": 196.3703, "EPHEMERIS_TYPE": 0, "CLASSIFICATION_TYPE": "U", "NORAD_CAT_ID": 34325, "ELEMENT_SET_NO": 999, "REV_AT_EPOCH": 85375, "BSTAR": 0.0020644, "MEAN_MOTION_DOT": 3.857e-05, "MEAN_MOTION_DDOT": 0}, "tle": {"line1": "1 34325U 93036NX  25336.75897575  .00003857  00000+0  20644-2 0  9990", "line2": "2 34325  73.8715 210.3909 0193305 229.6862 196.3703 14.04374276853755"}}, "geometry": {"type": "Point", "coordinates": [50.37410707555894, -50.97920365094992]}}]}